{
    "links": {
        "self": "http://www.neowsapp.com/rest/v1/neo/3791249?api_key=iIulBulltgU6a56xZRHN4H3l9WmuAYTsLGpBGhQ2"
    },
    "id": "3791249",
    "neo_reference_id": "3791249",
    "name": "(2017 XK1)",
    "designation": "2017 XK1",
    "nasa_jpl_url": "http://ssd.jpl.nasa.gov/sbdb.cgi?sstr=3791249",
    "absolute_magnitude_h": 25.2,
    "estimated_diameter": {
        "kilometers": {
            "estimated_diameter_min": 0.0242412481,
            "estimated_diameter_max": 0.0542050786
        },
        "meters": {
            "estimated_diameter_min": 24.2412481101,
            "estimated_diameter_max": 54.2050786336
        },
        "miles": {
            "estimated_diameter_min": 0.0150628086,
            "estimated_diameter_max": 0.0336814639
        },
        "feet": {
            "estimated_diameter_min": 79.5316564495,
            "estimated_diameter_max": 177.8381901842
        }
    },
    "is_potentially_hazardous_asteroid": false,
    "close_approach_data": [
        {
            "close_approach_date": "1936-12-09",
            "close_approach_date_full": "1936-Dec-09 23:34",
            "epoch_date_close_approach": -1043281560000,
            "relative_velocity": {
                "kilometers_per_second": "13.335875372",
                "kilometers_per_hour": "48009.151339088",
                "miles_per_hour": "29831.0196195572"
            },
            "miss_distance": {
                "astronomical": "0.0274906595",
                "lunar": "10.6938665455",
                "kilometers": "4112544.106095265",
                "miles": "2555416.411294057"
            },
            "orbiting_body": "Earth"
        },
        {
            "close_approach_date": "2017-12-15",
            "close_approach_date_full": "2017-Dec-15 07:55",
            "epoch_date_close_approach": 1513324500000,
            "relative_velocity": {
                "kilometers_per_second": "12.2342130459",
                "kilometers_per_hour": "44043.1669652936",
                "miles_per_hour": "27366.711162407"
            },
            "miss_distance": {
                "astronomical": "0.0157839714",
                "lunar": "6.1399648746",
                "kilometers": "2361248.501580918",
                "miles": "1467211.7833679484"
            },
            "orbiting_body": "Earth"
        }
    ],
    "orbital_data": {
        "orbit_id": "5",
        "orbit_determination_date": "2017-12-15 06:26:34",
        "first_observation_date": "2017-12-07",
        "last_observation_date": "2017-12-15",
        "data_arc_in_days": 8,
        "observations_used": 58,
        "orbit_uncertainty": "8",
        "minimum_orbit_intersection": ".00128486",
        "jupiter_tisserand_invariant": "3.633",
        "epoch_osculation": "2458096.5",
        "eccentricity": ".5624191166418868",
        "semi_major_axis": "1.983184918407634",
        "inclination": "8.771258860347684",
        "ascending_node_longitude": "260.9079288486087",
        "orbital_period": "1020.101164856793",
        "perihelion_distance": ".8678038084593002",
        "perihelion_argument": "228.43590851",
        "aphelion_distance": "3.098566028355968",
        "perihelion_time": "2458136.263910236919",
        "mean_anomaly": "345.9670705431452",
        "mean_motion": ".352906174801338",
        "equinox": "J2000",
        "orbit_class": {
            "orbit_class_type": "APO",
            "orbit_class_description": "Near-Earth asteroid orbits which cross the Earth’s orbit similar to that of 1862 Apollo",
            "orbit_class_range": "a (semi-major axis) > 1.0 AU; q (perihelion) < 1.017 AU"
        }
    },
    "is_sentry_object": false
}